{
  "type": "FeatureCollection",
  "crs": {
    "type": "name",
    "properties": {
      "name": "urn:ogc:def:crs:OGC:1.3:CRS84"
    }
  },
  "features": [
    {
      "type": "Feature",
      "geometry": {
        "type": "Polygon",
        "coordinates": [
          [
            [
              -88.98538504765226,
              28.944335545608688
            ],
            [
              -88.98538504765226,
              28.943976219495042
            ],
            [
              -88.98574437376591,
              28.943976219495042
            ],
            [
              -88.98574437376591,
              28.943616893381392
            ],
            [
              -88.98610369987956,
              28.943616893381392
            ],
            [
              -88.98610369987956,
              28.943257567267747
            ],
            [
              -88.98682235210686,
              28.943257567267747
            ],
            [
              -88.98682235210686,
              28.942898241154097
            ],
            [
              -88.98718167822051,
              28.942898241154097
            ],
            [
              -88.98718167822051,
              28.94253891504045
            ],
            [
              -88.9879003304478,
              28.94253891504045
            ],
            [
              -88.9879003304478,
              28.942179588926802
            ],
            [
              -88.98861898267509,
              28.942179588926802
            ],
            [
              -88.98861898267509,
              28.941820262813156
            ],
            [
              -88.98897830878875,
              28.941820262813156
            ],
            [
              -88.98897830878875,
              28.941101610585857
            ],
            [
              -88.98933763490238,
              28.941101610585857
            ],
            [
              -88.98933763490238,
              28.940382958358562
            ],
            [
              -88.99005628712969,
              28.940382958358562
            ],
            [
              -88.99005628712969,
              28.940023632244916
            ],
            [
              -88.99041561324333,
              28.940023632244916
            ],
            [
              -88.99041561324333,
              28.939664306131267
            ],
            [
              -88.99077493935698,
              28.939664306131267
            ],
            [
              -88.99077493935698,
              28.93930498001762
            ],
            [
              -88.99113426547063,
              28.93930498001762
            ],
            [
              -88.99113426547063,
              28.93894565390397
            ],
            [
              -88.99221224381157,
              28.93894565390397
            ],
            [
              -88.99221224381157,
              28.938586327790325
            ],
            [
              -88.99436820049345,
              28.938586327790325
            ],
            [
              -88.99436820049345,
              28.93894565390397
            ],
            [
              -88.9954461788344,
              28.93894565390397
            ],
            [
              -88.9954461788344,
              28.938586327790325
            ],
            [
              -88.99580550494805,
              28.938586327790325
            ],
            [
              -88.99580550494805,
              28.938227001676676
            ],
            [
              -88.99616483106169,
              28.938227001676676
            ],
            [
              -88.99616483106169,
              28.93786767556303
            ],
            [
              -88.99652415717534,
              28.93786767556303
            ],
            [
              -88.99652415717534,
              28.93750834944938
            ],
            [
              -88.996883483289,
              28.93750834944938
            ],
            [
              -88.996883483289,
              28.93714902333573
            ],
            [
              -88.99724280940264,
              28.93714902333573
            ],
            [
              -88.99724280940264,
              28.936789697222085
            ],
            [
              -88.99760213551629,
              28.936789697222085
            ],
            [
              -88.99760213551629,
              28.936430371108436
            ],
            [
              -88.99796146162994,
              28.936430371108436
            ],
            [
              -88.99796146162994,
              28.93607104499479
            ],
            [
              -89.00011741831182,
              28.93607104499479
            ],
            [
              -89.00011741831182,
              28.93571171888114
            ],
            [
              -89.00047674442547,
              28.93571171888114
            ],
            [
              -89.00047674442547,
              28.935352392767495
            ],
            [
              -89.00083607053912,
              28.935352392767495
            ],
            [
              -89.00083607053912,
              28.934993066653846
            ],
            [
              -89.00119539665276,
              28.934993066653846
            ],
            [
              -89.00119539665276,
              28.93427441442655
            ],
            [
              -89.00155472276641,
              28.93427441442655
            ],
            [
              -89.00155472276641,
              28.933196436085606
            ],
            [
              -89.00191404888007,
              28.933196436085606
            ],
            [
              -89.00191404888007,
              28.93283710997196
            ],
            [
              -89.0022733749937,
              28.93283710997196
            ],
            [
              -89.0022733749937,
              28.93247778385831
            ],
            [
              -89.00299202722101,
              28.93247778385831
            ],
            [
              -89.00299202722101,
              28.932118457744664
            ],
            [
              -89.00335135333465,
              28.932118457744664
            ],
            [
              -89.00335135333465,
              28.930681153290074
            ],
            [
              -89.0037106794483,
              28.930681153290074
            ],
            [
              -89.0037106794483,
              28.92924384883548
            ],
            [
              -89.00407000556194,
              28.92924384883548
            ],
            [
              -89.00407000556194,
              28.928884522721834
            ],
            [
              -89.0037106794483,
              28.928884522721834
            ],
            [
              -89.0037106794483,
              28.927447218267243
            ],
            [
              -89.00335135333465,
              28.927447218267243
            ],
            [
              -89.00335135333465,
              28.926728566039948
            ],
            [
              -89.00299202722101,
              28.926728566039948
            ],
            [
              -89.00299202722101,
              28.9263692399263
            ],
            [
              -89.00191404888007,
              28.9263692399263
            ],
            [
              -89.00191404888007,
              28.924931935471708
            ],
            [
              -89.0022733749937,
              28.924931935471708
            ],
            [
              -89.0022733749937,
              28.924213283244413
            ],
            [
              -89.00299202722101,
              28.924213283244413
            ],
            [
              -89.00299202722101,
              28.923853957130763
            ],
            [
              -89.00407000556194,
              28.923853957130763
            ],
            [
              -89.00407000556194,
              28.923494631017117
            ],
            [
              -89.00478865778925,
              28.923494631017117
            ],
            [
              -89.00478865778925,
              28.922416652676173
            ],
            [
              -89.0044293316756,
              28.922416652676173
            ],
            [
              -89.0044293316756,
              28.921698000448878
            ],
            [
              -89.00407000556194,
              28.921698000448878
            ],
            [
              -89.00407000556194,
              28.920979348221582
            ],
            [
              -89.0037106794483,
              28.920979348221582
            ],
            [
              -89.0037106794483,
              28.919901369880638
            ],
            [
              -89.00335135333465,
              28.919901369880638
            ],
            [
              -89.00335135333465,
              28.918104739312398
            ],
            [
              -89.0037106794483,
              28.918104739312398
            ],
            [
              -89.0037106794483,
              28.91630810874416
            ],
            [
              -89.00407000556194,
              28.91630810874416
            ],
            [
              -89.00407000556194,
              28.915230130403216
            ],
            [
              -89.0044293316756,
              28.915230130403216
            ],
            [
              -89.0044293316756,
              28.91415215206227
            ],
            [
              -89.00478865778925,
              28.91415215206227
            ],
            [
              -89.00478865778925,
              28.913433499834976
            ],
            [
              -89.00514798390289,
              28.913433499834976
            ],
            [
              -89.00514798390289,
              28.911996195380386
            ],
            [
              -89.00550731001654,
              28.911996195380386
            ],
            [
              -89.00550731001654,
              28.908762260357555
            ],
            [
              -89.0058666361302,
              28.908762260357555
            ],
            [
              -89.0058666361302,
              28.90840293424391
            ],
            [
              -89.00622596224383,
              28.90840293424391
            ],
            [
              -89.00622596224383,
              28.90804360813026
            ],
            [
              -89.00658528835748,
              28.90804360813026
            ],
            [
              -89.00658528835748,
              28.906965629789315
            ],
            [
              -89.00622596224383,
              28.906965629789315
            ],
            [
              -89.00622596224383,
              28.90516899922108
            ],
            [
              -89.00658528835748,
              28.90516899922108
            ],
            [
              -89.00658528835748,
              28.904450346993784
            ],
            [
              -89.00694461447114,
              28.904450346993784
            ],
            [
              -89.00694461447114,
              28.904091020880134
            ],
            [
              -89.00730394058478,
              28.904091020880134
            ],
            [
              -89.00730394058478,
              28.90337236865284
            ],
            [
              -89.00766326669843,
              28.90337236865284
            ],
            [
              -89.00766326669843,
              28.900857085857304
            ],
            [
              -89.00802259281208,
              28.900857085857304
            ],
            [
              -89.00802259281208,
              28.899419781402713
            ],
            [
              -89.00838191892572,
              28.899419781402713
            ],
            [
              -89.00838191892572,
              28.89834180306177
            ],
            [
              -89.00802259281208,
              28.89834180306177
            ],
            [
              -89.00802259281208,
              28.897982476948123
            ],
            [
              -89.00694461447114,
              28.897982476948123
            ],
            [
              -89.00694461447114,
              28.897623150834473
            ],
            [
              -89.00550731001654,
              28.897623150834473
            ],
            [
              -89.00550731001654,
              28.897263824720827
            ],
            [
              -89.00478865778925,
              28.897263824720827
            ],
            [
              -89.00478865778925,
              28.896545172493532
            ],
            [
              -89.0044293316756,
              28.896545172493532
            ],
            [
              -89.0044293316756,
              28.896185846379883
            ],
            [
              -89.00407000556194,
              28.896185846379883
            ],
            [
              -89.00407000556194,
              28.894389215811643
            ],
            [
              -89.0037106794483,
              28.894389215811643
            ],
            [
              -89.0037106794483,
              28.894029889697997
            ],
            [
              -89.00407000556194,
              28.894029889697997
            ],
            [
              -89.00407000556194,
              28.8933112374707
            ],
            [
              -89.0044293316756,
              28.8933112374707
            ],
            [
              -89.0044293316756,
              28.892592585243406
            ],
            [
              -89.00478865778925,
              28.892592585243406
            ],
            [
              -89.00478865778925,
              28.892233259129757
            ],
            [
              -89.00514798390289,
              28.892233259129757
            ],
            [
              -89.00514798390289,
              28.891873933016107
            ],
            [
              -89.00550731001654,
              28.891873933016107
            ],
            [
              -89.00550731001654,
              28.891155280788812
            ],
            [
              -89.0058666361302,
              28.891155280788812
            ],
            [
              -89.0058666361302,
              28.890436628561517
            ],
            [
              -89.00622596224383,
              28.890436628561517
            ],
            [
              -89.00622596224383,
              28.889358650220576
            ],
            [
              -89.0058666361302,
              28.889358650220576
            ],
            [
              -89.0058666361302,
              28.88863999799328
            ],
            [
              -89.00550731001654,
              28.88863999799328
            ],
            [
              -89.00550731001654,
              28.887562019652336
            ],
            [
              -89.00514798390289,
              28.887562019652336
            ],
            [
              -89.00514798390289,
              28.88648404131139
            ],
            [
              -89.00550731001654,
              28.88648404131139
            ],
            [
              -89.00550731001654,
              28.8850467368568
            ],
            [
              -89.0058666361302,
              28.8850467368568
            ],
            [
              -89.0058666361302,
              28.88360943240221
            ],
            [
              -89.00622596224383,
              28.88360943240221
            ],
            [
              -89.00622596224383,
              28.882531454061265
            ],
            [
              -89.00658528835748,
              28.882531454061265
            ],
            [
              -89.00658528835748,
              28.88217212794762
            ],
            [
              -89.00694461447114,
              28.88217212794762
            ],
            [
              -89.00694461447114,
              28.88181280183397
            ],
            [
              -89.00730394058478,
              28.88181280183397
            ],
            [
              -89.00730394058478,
              28.881453475720324
            ],
            [
              -89.00766326669843,
              28.881453475720324
            ],
            [
              -89.00766326669843,
              28.88001617126573
            ],
            [
              -89.00730394058478,
              28.88001617126573
            ],
            [
              -89.00730394058478,
              28.879297519038435
            ],
            [
              -89.00694461447114,
              28.879297519038435
            ],
            [
              -89.00694461447114,
              28.87893819292479
            ],
            [
              -89.00658528835748,
              28.87893819292479
            ],
            [
              -89.00658528835748,
              28.87857886681114
            ],
            [
              -89.00622596224383,
              28.87857886681114
            ],
            [
              -89.00622596224383,
              28.878219540697494
            ],
            [
              -89.0058666361302,
              28.878219540697494
            ],
            [
              -89.0058666361302,
              28.8775008884702
            ],
            [
              -89.00550731001654,
              28.8775008884702
            ],
            [
              -89.00550731001654,
              28.8767822362429
            ],
            [
              -89.00514798390289,
              28.8767822362429
            ],
            [
              -89.00514798390289,
              28.874266953447368
            ],
            [
              -89.00550731001654,
              28.874266953447368
            ],
            [
              -89.00550731001654,
              28.873188975106423
            ],
            [
              -89.0058666361302,
              28.873188975106423
            ],
            [
              -89.0058666361302,
              28.872470322879128
            ],
            [
              -89.00622596224383,
              28.872470322879128
            ],
            [
              -89.00622596224383,
              28.87211099676548
            ],
            [
              -89.00658528835748,
              28.87211099676548
            ],
            [
              -89.00658528835748,
              28.871392344538183
            ],
            [
              -89.00694461447114,
              28.871392344538183
            ],
            [
              -89.00694461447114,
              28.870314366197242
            ],
            [
              -89.00730394058478,
              28.870314366197242
            ],
            [
              -89.00730394058478,
              28.869595713969947
            ],
            [
              -89.00694461447114,
              28.869595713969947
            ],
            [
              -89.00694461447114,
              28.868877061742648
            ],
            [
              -89.00658528835748,
              28.868877061742648
            ],
            [
              -89.00658528835748,
              28.868517735629002
            ],
            [
              -89.00622596224383,
              28.868517735629002
            ],
            [
              -89.00622596224383,
              28.86708043117441
            ],
            [
              -89.0058666361302,
              28.86708043117441
            ],
            [
              -89.0058666361302,
              28.866721105060762
            ],
            [
              -89.00622596224383,
              28.866721105060762
            ],
            [
              -89.00622596224383,
              28.866361778947116
            ],
            [
              -89.00658528835748,
              28.866361778947116
            ],
            [
              -89.00658528835748,
              28.866002452833467
            ],
            [
              -89.00730394058478,
              28.866002452833467
            ],
            [
              -89.00730394058478,
              28.865643126719817
            ],
            [
              -89.00802259281208,
              28.865643126719817
            ],
            [
              -89.00802259281208,
              28.864924474492522
            ],
            [
              -89.00838191892572,
              28.864924474492522
            ],
            [
              -89.00838191892572,
              28.86348717003793
            ],
            [
              -89.00802259281208,
              28.86348717003793
            ],
            [
              -89.00802259281208,
              28.863127843924286
            ],
            [
              -89.00766326669843,
              28.863127843924286
            ],
            [
              -89.00766326669843,
              28.86240919169699
            ],
            [
              -89.00730394058478,
              28.86240919169699
            ],
            [
              -89.00730394058478,
              28.86169053946969
            ],
            [
              -89.00694461447114,
              28.86169053946969
            ],
            [
              -89.00694461447114,
              28.861331213356046
            ],
            [
              -89.00658528835748,
              28.861331213356046
            ],
            [
              -89.00658528835748,
              28.86061256112875
            ],
            [
              -89.00622596224383,
              28.86061256112875
            ],
            [
              -89.00622596224383,
              28.859534582787806
            ],
            [
              -89.0058666361302,
              28.859534582787806
            ],
            [
              -89.0058666361302,
              28.85917525667416
            ],
            [
              -89.00550731001654,
              28.85917525667416
            ],
            [
              -89.00550731001654,
              28.858456604446864
            ],
            [
              -89.00514798390289,
              28.858456604446864
            ],
            [
              -89.00514798390289,
              28.856659973878624
            ],
            [
              -89.00550731001654,
              28.856659973878624
            ],
            [
              -89.00550731001654,
              28.85594132165133
            ],
            [
              -89.0058666361302,
              28.85594132165133
            ],
            [
              -89.0058666361302,
              28.85558199553768
            ],
            [
              -89.00622596224383,
              28.85558199553768
            ],
            [
              -89.00622596224383,
              28.854863343310384
            ],
            [
              -89.00658528835748,
              28.854863343310384
            ],
            [
              -89.00658528835748,
              28.85450401719674
            ],
            [
              -89.00694461447114,
              28.85450401719674
            ],
            [
              -89.00694461447114,
              28.85414469108309
            ],
            [
              -89.00730394058478,
              28.85414469108309
            ],
            [
              -89.00730394058478,
              28.853426038855794
            ],
            [
              -89.00766326669843,
              28.853426038855794
            ],
            [
              -89.00766326669843,
              28.8527073866285
            ],
            [
              -89.00802259281208,
              28.8527073866285
            ],
            [
              -89.00802259281208,
              28.851988734401203
            ],
            [
              -89.00766326669843,
              28.851988734401203
            ],
            [
              -89.00766326669843,
              28.851629408287554
            ],
            [
              -89.00658528835748,
              28.851629408287554
            ],
            [
              -89.00658528835748,
              28.851270082173908
            ],
            [
              -89.00514798390289,
              28.851270082173908
            ],
            [
              -89.00514798390289,
              28.85091075606026
            ],
            [
              -89.00478865778925,
              28.85091075606026
            ],
            [
              -89.00478865778925,
              28.850192103832963
            ],
            [
              -89.00514798390289,
              28.850192103832963
            ],
            [
              -89.00514798390289,
              28.848395473264723
            ],
            [
              -89.00478865778925,
              28.848395473264723
            ],
            [
              -89.00478865778925,
              28.848036147151078
            ],
            [
              -89.00514798390289,
              28.848036147151078
            ],
            [
              -89.00514798390289,
              28.846958168810133
            ],
            [
              -89.00550731001654,
              28.846958168810133
            ],
            [
              -89.00550731001654,
              28.846239516582838
            ],
            [
              -89.0058666361302,
              28.846239516582838
            ],
            [
              -89.0058666361302,
              28.845520864355542
            ],
            [
              -89.00622596224383,
              28.845520864355542
            ],
            [
              -89.00622596224383,
              28.844442886014598
            ],
            [
              -89.0058666361302,
              28.844442886014598
            ],
            [
              -89.0058666361302,
              28.843364907673656
            ],
            [
              -89.00550731001654,
              28.843364907673656
            ],
            [
              -89.00550731001654,
              28.841927603219062
            ],
            [
              -89.0058666361302,
              28.841927603219062
            ],
            [
              -89.0058666361302,
              28.841568277105416
            ],
            [
              -89.00622596224383,
              28.841568277105416
            ],
            [
              -89.00622596224383,
              28.841208950991767
            ],
            [
              -89.00658528835748,
              28.841208950991767
            ],
            [
              -89.00658528835748,
              28.84084962487812
            ],
            [
              -89.00694461447114,
              28.84084962487812
            ],
            [
              -89.00694461447114,
              28.840490298764472
            ],
            [
              -89.00730394058478,
              28.840490298764472
            ],
            [
              -89.00730394058478,
              28.840130972650826
            ],
            [
              -89.00766326669843,
              28.840130972650826
            ],
            [
              -89.00766326669843,
              28.839771646537177
            ],
            [
              -89.00802259281208,
              28.839771646537177
            ],
            [
              -89.00802259281208,
              28.83941232042353
            ],
            [
              -89.00838191892572,
              28.83941232042353
            ],
            [
              -89.00838191892572,
              28.838334342082586
            ],
            [
              -89.00874124503937,
              28.838334342082586
            ],
            [
              -89.00874124503937,
              28.83725636374164
            ],
            [
              -89.00838191892572,
              28.83725636374164
            ],
            [
              -89.00838191892572,
              28.83581905928705
            ],
            [
              -89.00874124503937,
              28.83581905928705
            ],
            [
              -89.00874124503937,
              28.8354597331734
            ],
            [
              -89.00910057115301,
              28.8354597331734
            ],
            [
              -89.00910057115301,
              28.834741080946106
            ],
            [
              -89.00874124503937,
              28.834741080946106
            ],
            [
              -89.00874124503937,
              28.83114781980963
            ],
            [
              -89.00910057115301,
              28.83114781980963
            ],
            [
              -89.00910057115301,
              28.830069841468685
            ],
            [
              -89.00945989726667,
              28.830069841468685
            ],
            [
              -89.00945989726667,
              28.82935118924139
            ],
            [
              -89.00981922338032,
              28.82935118924139
            ],
            [
              -89.00981922338032,
              28.828991863127744
            ],
            [
              -89.01017854949396,
              28.828991863127744
            ],
            [
              -89.01017854949396,
              28.828632537014094
            ],
            [
              -89.01053787560761,
              28.828632537014094
            ],
            [
              -89.01053787560761,
              28.82827321090045
            ],
            [
              -89.01089720172126,
              28.82827321090045
            ],
            [
              -89.01089720172126,
              28.8279138847868
            ],
            [
              -89.0112565278349,
              28.8279138847868
            ],
            [
              -89.0112565278349,
              28.827195232559504
            ],
            [
              -89.01161585394856,
              28.827195232559504
            ],
            [
              -89.01161585394856,
              28.826835906445854
            ],
            [
              -89.01197518006221,
              28.826835906445854
            ],
            [
              -89.01197518006221,
              28.825757928104913
            ],
            [
              -89.01233450617585,
              28.825757928104913
            ],
            [
              -89.01233450617585,
              28.82467994976397
            ],
            [
              -89.01341248451679,
              28.82467994976397
            ],
            [
              -89.01341248451679,
              28.824320623650323
            ],
            [
              -89.01520911508503,
              28.824320623650323
            ],
            [
              -89.01520911508503,
              28.823961297536673
            ],
            [
              -89.01736507176692,
              28.823961297536673
            ],
            [
              -89.01736507176692,
              28.823601971423024
            ],
            [
              -89.01772439788057,
              28.823601971423024
            ],
            [
              -89.01772439788057,
              28.821805340854787
            ],
            [
              -89.00802259281208,
              28.821805340854787
            ],
            [
              -89.00802259281208,
              28.822164666968433
            ],
            [
              -89.00766326669843,
              28.822164666968433
            ],
            [
              -89.00766326669843,
              28.82288331919573
            ],
            [
              -89.00730394058478,
              28.82288331919573
            ],
            [
              -89.00730394058478,
              28.823601971423024
            ],
            [
              -89.00694461447114,
              28.823601971423024
            ],
            [
              -89.00694461447114,
              28.824320623650323
            ],
            [
              -89.00658528835748,
              28.824320623650323
            ],
            [
              -89.00658528835748,
              28.826835906445854
            ],
            [
              -89.00622596224383,
              28.826835906445854
            ],
            [
              -89.00622596224383,
              28.82827321090045
            ],
            [
              -89.0058666361302,
              28.82827321090045
            ],
            [
              -89.0058666361302,
              28.828991863127744
            ],
            [
              -89.00550731001654,
              28.828991863127744
            ],
            [
              -89.00550731001654,
              28.82971051535504
            ],
            [
              -89.00514798390289,
              28.82971051535504
            ],
            [
              -89.00514798390289,
              28.830069841468685
            ],
            [
              -89.00478865778925,
              28.830069841468685
            ],
            [
              -89.00478865778925,
              28.831507145923275
            ],
            [
              -89.0044293316756,
              28.831507145923275
            ],
            [
              -89.0044293316756,
              28.83258512426422
            ],
            [
              -89.00407000556194,
              28.83258512426422
            ],
            [
              -89.00407000556194,
              28.83294445037787
            ],
            [
              -89.0037106794483,
              28.83294445037787
            ],
            [
              -89.0037106794483,
              28.833303776491515
            ],
            [
              -89.00335135333465,
              28.833303776491515
            ],
            [
              -89.00335135333465,
              28.83402242871881
            ],
            [
              -89.00299202722101,
              28.83402242871881
            ],
            [
              -89.00299202722101,
              28.83438175483246
            ],
            [
              -89.00263270110736,
              28.83438175483246
            ],
            [
              -89.00263270110736,
              28.835100407059755
            ],
            [
              -89.0022733749937,
              28.835100407059755
            ],
            [
              -89.0022733749937,
              28.8361783854007
            ],
            [
              -89.00191404888007,
              28.8361783854007
            ],
            [
              -89.00191404888007,
              28.836897037627995
            ],
            [
              -89.00155472276641,
              28.836897037627995
            ],
            [
              -89.00155472276641,
              28.83725636374164
            ],
            [
              -89.00119539665276,
              28.83725636374164
            ],
            [
              -89.00119539665276,
              28.837975015968937
            ],
            [
              -89.00083607053912,
              28.837975015968937
            ],
            [
              -89.00083607053912,
              28.838334342082586
            ],
            [
              -89.00011741831182,
              28.838334342082586
            ],
            [
              -89.00011741831182,
              28.838693668196232
            ],
            [
              -88.99975809219818,
              28.838693668196232
            ],
            [
              -88.99975809219818,
              28.83905299430988
            ],
            [
              -88.99939876608452,
              28.83905299430988
            ],
            [
              -88.99939876608452,
              28.83941232042353
            ],
            [
              -88.99868011385723,
              28.83941232042353
            ],
            [
              -88.99868011385723,
              28.839771646537177
            ],
            [
              -88.99832078774358,
              28.839771646537177
            ],
            [
              -88.99832078774358,
              28.840490298764472
            ],
            [
              -88.99796146162994,
              28.840490298764472
            ],
            [
              -88.99796146162994,
              28.841208950991767
            ],
            [
              -88.99760213551629,
              28.841208950991767
            ],
            [
              -88.99760213551629,
              28.841568277105416
            ],
            [
              -88.99724280940264,
              28.841568277105416
            ],
            [
              -88.99724280940264,
              28.84228692933271
            ],
            [
              -88.996883483289,
              28.84228692933271
            ],
            [
              -88.996883483289,
              28.842646255446358
            ],
            [
              -88.99652415717534,
              28.842646255446358
            ],
            [
              -88.99652415717534,
              28.843364907673656
            ],
            [
              -88.99616483106169,
              28.843364907673656
            ],
            [
              -88.99616483106169,
              28.844442886014598
            ],
            [
              -88.99580550494805,
              28.844442886014598
            ],
            [
              -88.99580550494805,
              28.845880190469188
            ],
            [
              -88.9954461788344,
              28.845880190469188
            ],
            [
              -88.9954461788344,
              28.846598842696483
            ],
            [
              -88.99508685272076,
              28.846598842696483
            ],
            [
              -88.99508685272076,
              28.847676821037428
            ],
            [
              -88.99472752660711,
              28.847676821037428
            ],
            [
              -88.99472752660711,
              28.848754799378373
            ],
            [
              -88.99436820049345,
              28.848754799378373
            ],
            [
              -88.99436820049345,
              28.849832777719314
            ],
            [
              -88.99400887437982,
              28.849832777719314
            ],
            [
              -88.99400887437982,
              28.850192103832963
            ],
            [
              -88.99364954826616,
              28.850192103832963
            ],
            [
              -88.99364954826616,
              28.85055142994661
            ],
            [
              -88.99329022215251,
              28.85055142994661
            ],
            [
              -88.99329022215251,
              28.851629408287554
            ],
            [
              -88.99293089603887,
              28.851629408287554
            ],
            [
              -88.99293089603887,
              28.85378536496944
            ],
            [
              -88.99257156992522,
              28.85378536496944
            ],
            [
              -88.99257156992522,
              28.854863343310384
            ],
            [
              -88.99221224381157,
              28.854863343310384
            ],
            [
              -88.99221224381157,
              28.85701929999227
            ],
            [
              -88.99185291769793,
              28.85701929999227
            ],
            [
              -88.99185291769793,
              28.858097278333215
            ],
            [
              -88.99149359158427,
              28.858097278333215
            ],
            [
              -88.99149359158427,
              28.859893908901455
            ],
            [
              -88.99113426547063,
              28.859893908901455
            ],
            [
              -88.99113426547063,
              28.86061256112875
            ],
            [
              -88.99077493935698,
              28.86061256112875
            ],
            [
              -88.99077493935698,
              28.86240919169699
            ],
            [
              -88.99041561324333,
              28.86240919169699
            ],
            [
              -88.99041561324333,
              28.86348717003793
            ],
            [
              -88.99005628712969,
              28.86348717003793
            ],
            [
              -88.99005628712969,
              28.864205822265227
            ],
            [
              -88.98969696101604,
              28.864205822265227
            ],
            [
              -88.98969696101604,
              28.864924474492522
            ],
            [
              -88.98933763490238,
              28.864924474492522
            ],
            [
              -88.98933763490238,
              28.865643126719817
            ],
            [
              -88.98897830878875,
              28.865643126719817
            ],
            [
              -88.98897830878875,
              28.866361778947116
            ],
            [
              -88.98861898267509,
              28.866361778947116
            ],
            [
              -88.98861898267509,
              28.868517735629002
            ],
            [
              -88.98825965656144,
              28.868517735629002
            ],
            [
              -88.98825965656144,
              28.870673692310888
            ],
            [
              -88.9879003304478,
              28.870673692310888
            ],
            [
              -88.9879003304478,
              28.872829648992774
            ],
            [
              -88.98754100433415,
              28.872829648992774
            ],
            [
              -88.98754100433415,
              28.874266953447368
            ],
            [
              -88.98718167822051,
              28.874266953447368
            ],
            [
              -88.98718167822051,
              28.876422910129254
            ],
            [
              -88.98682235210686,
              28.876422910129254
            ],
            [
              -88.98682235210686,
              28.87893819292479
            ],
            [
              -88.9864630259932,
              28.87893819292479
            ],
            [
              -88.9864630259932,
              28.88037549737938
            ],
            [
              -88.98610369987956,
              28.88037549737938
            ],
            [
              -88.98610369987956,
              28.882531454061265
            ],
            [
              -88.98574437376591,
              28.882531454061265
            ],
            [
              -88.98574437376591,
              28.884687410743155
            ],
            [
              -88.98538504765226,
              28.884687410743155
            ],
            [
              -88.98538504765226,
              28.88540606297045
            ],
            [
              -88.98502572153862,
              28.88540606297045
            ],
            [
              -88.98502572153862,
              28.886124715197745
            ],
            [
              -88.98466639542497,
              28.886124715197745
            ],
            [
              -88.98466639542497,
              28.88684336742504
            ],
            [
              -88.98430706931131,
              28.88684336742504
            ],
            [
              -88.98430706931131,
              28.88792134576598
            ],
            [
              -88.98394774319767,
              28.88792134576598
            ],
            [
              -88.98394774319767,
              28.88828067187963
            ],
            [
              -88.98358841708402,
              28.88828067187963
            ],
            [
              -88.98358841708402,
              28.88863999799328
            ],
            [
              -88.98322909097038,
              28.88863999799328
            ],
            [
              -88.98322909097038,
              28.888999324106926
            ],
            [
              -88.98286976485673,
              28.888999324106926
            ],
            [
              -88.98286976485673,
              28.889358650220576
            ],
            [
              -88.98251043874308,
              28.889358650220576
            ],
            [
              -88.98251043874308,
              28.88971797633422
            ],
            [
              -88.98215111262944,
              28.88971797633422
            ],
            [
              -88.98215111262944,
              28.89007730244787
            ],
            [
              -88.98179178651579,
              28.89007730244787
            ],
            [
              -88.98179178651579,
              28.89151460690246
            ],
            [
              -88.98143246040213,
              28.89151460690246
            ],
            [
              -88.98143246040213,
              28.892592585243406
            ],
            [
              -88.9810731342885,
              28.892592585243406
            ],
            [
              -88.9810731342885,
              28.8933112374707
            ],
            [
              -88.98071380817484,
              28.8933112374707
            ],
            [
              -88.98071380817484,
              28.894029889697997
            ],
            [
              -88.98035448206119,
              28.894029889697997
            ],
            [
              -88.98035448206119,
              28.894389215811643
            ],
            [
              -88.97999515594755,
              28.894389215811643
            ],
            [
              -88.97999515594755,
              28.895107868038938
            ],
            [
              -88.9796358298339,
              28.895107868038938
            ],
            [
              -88.9796358298339,
              28.895467194152587
            ],
            [
              -88.97927650372026,
              28.895467194152587
            ],
            [
              -88.97927650372026,
              28.895826520266233
            ],
            [
              -88.9789171776066,
              28.895826520266233
            ],
            [
              -88.9789171776066,
              28.896545172493532
            ],
            [
              -88.97855785149295,
              28.896545172493532
            ],
            [
              -88.97855785149295,
              28.896904498607178
            ],
            [
              -88.97819852537931,
              28.896904498607178
            ],
            [
              -88.97819852537931,
              28.897263824720827
            ],
            [
              -88.97783919926566,
              28.897263824720827
            ],
            [
              -88.97783919926566,
              28.897623150834473
            ],
            [
              -88.977479873152,
              28.897623150834473
            ],
            [
              -88.977479873152,
              28.897982476948123
            ],
            [
              -88.97712054703837,
              28.897982476948123
            ],
            [
              -88.97712054703837,
              28.89834180306177
            ],
            [
              -88.97676122092471,
              28.89834180306177
            ],
            [
              -88.97676122092471,
              28.899060455289064
            ],
            [
              -88.97640189481106,
              28.899060455289064
            ],
            [
              -88.97640189481106,
              28.89977910751636
            ],
            [
              -88.97604256869742,
              28.89977910751636
            ],
            [
              -88.97604256869742,
              28.900497759743658
            ],
            [
              -88.97568324258377,
              28.900497759743658
            ],
            [
              -88.97568324258377,
              28.901216411970953
            ],
            [
              -88.97532391647013,
              28.901216411970953
            ],
            [
              -88.97532391647013,
              28.90193506419825
            ],
            [
              -88.97496459035648,
              28.90193506419825
            ],
            [
              -88.97496459035648,
              28.902653716425544
            ],
            [
              -88.97460526424283,
              28.902653716425544
            ],
            [
              -88.97460526424283,
              28.90337236865284
            ],
            [
              -88.97424593812919,
              28.90337236865284
            ],
            [
              -88.97424593812919,
              28.904450346993784
            ],
            [
              -88.97388661201553,
              28.904450346993784
            ],
            [
              -88.97388661201553,
              28.905887651448374
            ],
            [
              -88.97352728590188,
              28.905887651448374
            ],
            [
              -88.97352728590188,
              28.90660630367567
            ],
            [
              -88.97316795978824,
              28.90660630367567
            ],
            [
              -88.97316795978824,
              28.907324955902965
            ],
            [
              -88.97280863367459,
              28.907324955902965
            ],
            [
              -88.97280863367459,
              28.90804360813026
            ],
            [
              -88.97244930756094,
              28.90804360813026
            ],
            [
              -88.97244930756094,
              28.90840293424391
            ],
            [
              -88.9720899814473,
              28.90840293424391
            ],
            [
              -88.9720899814473,
              28.908762260357555
            ],
            [
              -88.97173065533364,
              28.908762260357555
            ],
            [
              -88.97173065533364,
              28.9098402386985
            ],
            [
              -88.97137132922,
              28.9098402386985
            ],
            [
              -88.97137132922,
              28.913433499834976
            ],
            [
              -88.97101200310635,
              28.913433499834976
            ],
            [
              -88.97101200310635,
              28.91451147817592
            ],
            [
              -88.9706526769927,
              28.91451147817592
            ],
            [
              -88.9706526769927,
              28.91594878263051
            ],
            [
              -88.97029335087906,
              28.91594878263051
            ],
            [
              -88.97029335087906,
              28.916667434857807
            ],
            [
              -88.96993402476541,
              28.916667434857807
            ],
            [
              -88.96993402476541,
              28.919182717653342
            ],
            [
              -88.97029335087906,
              28.919182717653342
            ],
            [
              -88.97029335087906,
              28.919901369880638
            ],
            [
              -88.9706526769927,
              28.919901369880638
            ],
            [
              -88.9706526769927,
              28.922057326562523
            ],
            [
              -88.97029335087906,
              28.922057326562523
            ],
            [
              -88.97029335087906,
              28.923135304903468
            ],
            [
              -88.96993402476541,
              28.923135304903468
            ],
            [
              -88.96993402476541,
              28.93139980551737
            ],
            [
              -88.96957469865175,
              28.93139980551737
            ],
            [
              -88.96957469865175,
              28.936789697222085
            ],
            [
              -88.97029335087906,
              28.936789697222085
            ],
            [
              -88.97029335087906,
              28.93714902333573
            ],
            [
              -88.97388661201553,
              28.93714902333573
            ],
            [
              -88.97388661201553,
              28.93750834944938
            ],
            [
              -88.97424593812919,
              28.93750834944938
            ],
            [
              -88.97424593812919,
              28.93786767556303
            ],
            [
              -88.97460526424283,
              28.93786767556303
            ],
            [
              -88.97460526424283,
              28.938227001676676
            ],
            [
              -88.97496459035648,
              28.938227001676676
            ],
            [
              -88.97496459035648,
              28.93894565390397
            ],
            [
              -88.97532391647013,
              28.93894565390397
            ],
            [
              -88.97532391647013,
              28.939664306131267
            ],
            [
              -88.97568324258377,
              28.939664306131267
            ],
            [
              -88.97568324258377,
              28.940382958358562
            ],
            [
              -88.97604256869742,
              28.940382958358562
            ],
            [
              -88.97604256869742,
              28.941460936699507
            ],
            [
              -88.97640189481106,
              28.941460936699507
            ],
            [
              -88.97640189481106,
              28.942179588926802
            ],
            [
              -88.97676122092471,
              28.942179588926802
            ],
            [
              -88.97676122092471,
              28.942898241154097
            ],
            [
              -88.97712054703837,
              28.942898241154097
            ],
            [
              -88.97712054703837,
              28.943616893381392
            ],
            [
              -88.977479873152,
              28.943616893381392
            ],
            [
              -88.977479873152,
              28.943976219495042
            ],
            [
              -88.97783919926566,
              28.943976219495042
            ],
            [
              -88.97783919926566,
              28.944335545608688
            ],
            [
              -88.9789171776066,
              28.944335545608688
            ],
            [
              -88.9789171776066,
              28.943976219495042
            ],
            [
              -88.97999515594755,
              28.943976219495042
            ],
            [
              -88.97999515594755,
              28.943616893381392
            ],
            [
              -88.98071380817484,
              28.943616893381392
            ],
            [
              -88.98071380817484,
              28.943257567267747
            ],
            [
              -88.9810731342885,
              28.943257567267747
            ],
            [
              -88.9810731342885,
              28.942898241154097
            ],
            [
              -88.98143246040213,
              28.942898241154097
            ],
            [
              -88.98143246040213,
              28.94253891504045
            ],
            [
              -88.98179178651579,
              28.94253891504045
            ],
            [
              -88.98179178651579,
              28.942179588926802
            ],
            [
              -88.98215111262944,
              28.942179588926802
            ],
            [
              -88.98215111262944,
              28.941820262813156
            ],
            [
              -88.98322909097038,
              28.941820262813156
            ],
            [
              -88.98322909097038,
              28.941460936699507
            ],
            [
              -88.98394774319767,
              28.941460936699507
            ],
            [
              -88.98394774319767,
              28.943257567267747
            ],
            [
              -88.98430706931131,
              28.943257567267747
            ],
            [
              -88.98430706931131,
              28.943616893381392
            ],
            [
              -88.98466639542497,
              28.943616893381392
            ],
            [
              -88.98466639542497,
              28.943976219495042
            ],
            [
              -88.98502572153862,
              28.943976219495042
            ],
            [
              -88.98502572153862,
              28.944335545608688
            ],
            [
              -88.98538504765226,
              28.944335545608688
            ]
          ]
        ]
      },
      "properties": {
        "area_deg2": 0.0025075473857901253,
        "centroid_lon": -88.99221125395805,
        "centroid_lat": 28.896679283782085,
        "perimeter_deg": 0.39310276833067803,
        "spread_km": 3.1359751804071396
      }
    },
    {
      "type": "Feature",
      "geometry": {
        "type": "Polygon",
        "coordinates": [
          [
            [
              -88.98969696101604,
              28.828632537014094
            ],
            [
              -88.98969696101604,
              28.82827321090045
            ],
            [
              -88.99149359158427,
              28.82827321090045
            ],
            [
              -88.99149359158427,
              28.8279138847868
            ],
            [
              -88.99185291769793,
              28.8279138847868
            ],
            [
              -88.99185291769793,
              28.82755455867315
            ],
            [
              -88.99221224381157,
              28.82755455867315
            ],
            [
              -88.99221224381157,
              28.827195232559504
            ],
            [
              -88.99652415717534,
              28.827195232559504
            ],
            [
              -88.99652415717534,
              28.826835906445854
            ],
            [
              -88.99832078774358,
              28.826835906445854
            ],
            [
              -88.99832078774358,
              28.82647658033221
            ],
            [
              -88.99903943997089,
              28.82647658033221
            ],
            [
              -88.99903943997089,
              28.82611725421856
            ],
            [
              -89.00011741831182,
              28.82611725421856
            ],
            [
              -89.00011741831182,
              28.825757928104913
            ],
            [
              -89.00083607053912,
              28.825757928104913
            ],
            [
              -89.00083607053912,
              28.825398601991264
            ],
            [
              -89.00155472276641,
              28.825398601991264
            ],
            [
              -89.00155472276641,
              28.825039275877618
            ],
            [
              -89.00191404888007,
              28.825039275877618
            ],
            [
              -89.00191404888007,
              28.82467994976397
            ],
            [
              -89.0022733749937,
              28.82467994976397
            ],
            [
              -89.0022733749937,
              28.824320623650323
            ],
            [
              -89.00335135333465,
              28.824320623650323
            ],
            [
              -89.00335135333465,
              28.823961297536673
            ],
            [
              -89.00407000556194,
              28.823961297536673
            ],
            [
              -89.00407000556194,
              28.823601971423024
            ],
            [
              -89.0044293316756,
              28.823601971423024
            ],
            [
              -89.0044293316756,
              28.82288331919573
            ],
            [
              -89.00478865778925,
              28.82288331919573
            ],
            [
              -89.00478865778925,
              28.822164666968433
            ],
            [
              -89.00514798390289,
              28.822164666968433
            ],
            [
              -89.00514798390289,
              28.821805340854787
            ],
            [
              -88.99868011385723,
              28.821805340854787
            ],
            [
              -88.99868011385723,
              28.822164666968433
            ],
            [
              -88.99796146162994,
              28.822164666968433
            ],
            [
              -88.99796146162994,
              28.822523993082083
            ],
            [
              -88.99760213551629,
              28.822523993082083
            ],
            [
              -88.99760213551629,
              28.82288331919573
            ],
            [
              -88.99724280940264,
              28.82288331919573
            ],
            [
              -88.99724280940264,
              28.823242645309378
            ],
            [
              -88.99616483106169,
              28.823242645309378
            ],
            [
              -88.99616483106169,
              28.823601971423024
            ],
            [
              -88.9954461788344,
              28.823601971423024
            ],
            [
              -88.9954461788344,
              28.823961297536673
            ],
            [
              -88.99472752660711,
              28.823961297536673
            ],
            [
              -88.99472752660711,
              28.824320623650323
            ],
            [
              -88.99400887437982,
              28.824320623650323
            ],
            [
              -88.99400887437982,
              28.82467994976397
            ],
            [
              -88.99113426547063,
              28.82467994976397
            ],
            [
              -88.99113426547063,
              28.825039275877618
            ],
            [
              -88.99041561324333,
              28.825039275877618
            ],
            [
              -88.99041561324333,
              28.825398601991264
            ],
            [
              -88.98933763490238,
              28.825398601991264
            ],
            [
              -88.98933763490238,
              28.825757928104913
            ],
            [
              -88.98897830878875,
              28.825757928104913
            ],
            [
              -88.98897830878875,
              28.82611725421856
            ],
            [
              -88.98825965656144,
              28.82611725421856
            ],
            [
              -88.98825965656144,
              28.82647658033221
            ],
            [
              -88.9879003304478,
              28.82647658033221
            ],
            [
              -88.9879003304478,
              28.826835906445854
            ],
            [
              -88.98754100433415,
              28.826835906445854
            ],
            [
              -88.98754100433415,
              28.827195232559504
            ],
            [
              -88.98718167822051,
              28.827195232559504
            ],
            [
              -88.98718167822051,
              28.82827321090045
            ],
            [
              -88.98754100433415,
              28.82827321090045
            ],
            [
              -88.98754100433415,
              28.828632537014094
            ],
            [
              -88.98969696101604,
              28.828632537014094
            ]
          ]
        ]
      },
      "properties": {
        "area_deg2": 5.474486852246249e-05,
        "centroid_lon": -88.99626228979538,
        "centroid_lat": 28.825063852427846,
        "perimeter_deg": 0.04958700368337077,
        "spread_km": 0.5
      }
    }
  ]
}